{
  "type": "FeatureCollection",
  "features": [
    {
      "type": "Feature",
      "properties": {
        "norad_id": 25730,
        "name": "FENGYUN 1C",
        "group": "fengyun-1c-debris",
        "lat": 44.00000023704403,
        "lon": 51.85095937705875,
        "alt_km": 793.6155819060932,
        "timestamp": "2025-12-20T09:36:01.916291+00:00",
        "meta_object_name": "FENGYUN 1C",
        "meta_object_id": "1999-025A",
        "meta_epoch": "2025-12-20T02:39:23.881248",
        "meta_mean_motion": 14.26086604,
        "meta_eccentricity": 0.0010404,
        "meta_inclination": 98.8832,
        "meta_ra_of_asc_node": 60.2443,
        "meta_arg_of_pericenter": 48.342,
        "meta_mean_anomaly": 311.8648,
        "meta_ephemeris_type": 0,
        "meta_classification_type": "U",
        "meta_norad_cat_id": 25730,
        "meta_element_set_no": 999,
        "meta_rev_at_epoch": 37242,
        "meta_bstar": 0.00078781,
        "meta_mean_motion_dot": 1.839e-05,
        "meta_mean_motion_ddot": 0,
        "tle_line1": "1 25730U 99025A   25354.11069307  .00001839  00000+0  78781-3 0  9992",
        "tle_line2": "2 25730  98.8832  60.2443 0010404  48.3420 311.8648 14.26086604372422"
      },
      "geometry": {
        "type": "Point",
        "coordinates": [
          51.85095937705875,
          44.00000023704403
        ]
      }
    },
    {
      "type": "Feature",
      "properties": {
        "norad_id": 29733,
        "name": "FENGYUN 1C DEB",
        "group": "fengyun-1c-debris",
        "lat": 27.685838373756123,
        "lon": 44.4095440098026,
        "alt_km": 1669.4235771503754,
        "timestamp": "2025-12-20T09:36:01.916311+00:00",
        "meta_object_name": "FENGYUN 1C DEB",
        "meta_object_id": "1999-025X",
        "meta_epoch": "2025-12-19T15:43:12.058752",
        "meta_mean_motion": 12.96482937,
        "meta_eccentricity": 0.0569758,
        "meta_inclination": 99.2244,
        "meta_ra_of_asc_node": 48.6687,
        "meta_arg_of_pericenter": 186.1147,
        "meta_mean_anomaly": 329.2452,
        "meta_ephemeris_type": 0,
        "meta_classification_type": "U",
        "meta_norad_cat_id": 29733,
        "meta_element_set_no": 999,
        "meta_rev_at_epoch": 89209,
        "meta_bstar": 0.0015432,
        "meta_mean_motion_dot": 8.99e-06,
        "meta_mean_motion_ddot": 0,
        "tle_line1": "1 29733U 99025X   25353.65500068  .00000899  00000+0  15432-2 0  9999",
        "tle_line2": "2 29733  99.2244  48.6687 0569758 186.1147 329.2452 12.96482937892099"
      },
      "geometry": {
        "type": "Point",
        "coordinates": [
          44.4095440098026,
          27.685838373756123
        ]
      }
    },
    {
      "type": "Feature",
      "properties": {
        "norad_id": 29734,
        "name": "FENGYUN 1C DEB",
        "group": "fengyun-1c-debris",
        "lat": 73.35895929118057,
        "lon": -109.66023266054377,
        "alt_km": 1192.7059122698392,
        "timestamp": "2025-12-20T09:36:01.916324+00:00",
        "meta_object_name": "FENGYUN 1C DEB",
        "meta_object_id": "1999-025Y",
        "meta_epoch": "2025-12-19T18:29:51.680256",
        "meta_mean_motion": 12.9134365,
        "meta_eccentricity": 0.06156554,
        "meta_inclination": 99.1704,
        "meta_ra_of_asc_node": 282.5253,
        "meta_arg_of_pericenter": 355.8185,
        "meta_mean_anomaly": 29.3297,
        "meta_ephemeris_type": 0,
        "meta_classification_type": "U",
        "meta_norad_cat_id": 29734,
        "meta_element_set_no": 999,
        "meta_rev_at_epoch": 88639,
        "meta_bstar": 0.0025782675,
        "meta_mean_motion_dot": 1.573e-05,
        "meta_mean_motion_ddot": 0,
        "tle_line1": "1 29734U 99025Y   25353.77073704  .00001573  00000+0  25783-2 0  9995",
        "tle_line2": "2 29734  99.1704 282.5253 0615655 355.8185  29.3297 12.91343650886397"
      },
      "geometry": {
        "type": "Point",
        "coordinates": [
          -109.66023266054377,
          73.35895929118057
        ]
      }
    },
    {
      "type": "Feature",
      "properties": {
        "norad_id": 29735,
        "name": "FENGYUN 1C DEB",
        "group": "fengyun-1c-debris",
        "lat": -79.87793761615687,
        "lon": 20.111669849085665,
        "alt_km": 1500.5582023045517,
        "timestamp": "2025-12-20T09:36:01.916335+00:00",
        "meta_object_name": "FENGYUN 1C DEB",
        "meta_object_id": "1999-025Z",
        "meta_epoch": "2025-12-19T05:53:56.410656",
        "meta_mean_motion": 12.75057753,
        "meta_eccentricity": 0.0697478,
        "meta_inclination": 99.3914,
        "meta_ra_of_asc_node": 267.1175,
        "meta_arg_of_pericenter": 160.7871,
        "meta_mean_anomaly": 202.0989,
        "meta_ephemeris_type": 0,
        "meta_classification_type": "U",
        "meta_norad_cat_id": 29735,
        "meta_element_set_no": 999,
        "meta_rev_at_epoch": 87498,
        "meta_bstar": 0.0013842,
        "meta_mean_motion_dot": 7.76e-06,
        "meta_mean_motion_ddot": 0,
        "tle_line1": "1 29735U 99025Z   25353.24579179  .00000776  00000+0  13842-2 0  9992",
        "tle_line2": "2 29735  99.3914 267.1175 0697478 160.7871 202.0989 12.75057753874981"
      },
      "geometry": {
        "type": "Point",
        "coordinates": [
          20.111669849085665,
          -79.87793761615687
        ]
      }
    },
    {
      "type": "Feature",
      "properties": {
        "norad_id": 29736,
        "name": "FENGYUN 1C DEB",
        "group": "fengyun-1c-debris",
        "lat": -80.56087272474879,
        "lon": -102.3400113093517,
        "alt_km": 1384.8058502186113,
        "timestamp": "2025-12-20T09:36:01.916346+00:00",
        "meta_object_name": "FENGYUN 1C DEB",
        "meta_object_id": "1999-025AA",
        "meta_epoch": "2025-12-16T22:58:07.968288",
        "meta_mean_motion": 12.57499187,
        "meta_eccentricity": 0.0724992,
        "meta_inclination": 99.4033,
        "meta_ra_of_asc_node": 169.547,
        "meta_arg_of_pericenter": 189.6493,
        "meta_mean_anomaly": 333.7972,
        "meta_ephemeris_type": 0,
        "meta_classification_type": "U",
        "meta_norad_cat_id": 29736,
        "meta_element_set_no": 999,
        "meta_rev_at_epoch": 86597,
        "meta_bstar": 0.0018646537,
        "meta_mean_motion_dot": 8.18e-06,
        "meta_mean_motion_ddot": 0,
        "tle_line1": "1 29736U 99025AA  25350.95703667  .00000818  00000+0  18647-2 0  9994",
        "tle_line2": "2 29736  99.4033 169.5470 0724992 189.6493 333.7972 12.57499187865974"
      },
      "geometry": {
        "type": "Point",
        "coordinates": [
          -102.3400113093517,
          -80.56087272474879
        ]
      }
    },
    {
      "type": "Feature",
      "properties": {
        "norad_id": 29737,
        "name": "FENGYUN 1C DEB",
        "group": "fengyun-1c-debris",
        "lat": -48.142588885990165,
        "lon": 117.33718197414235,
        "alt_km": 1530.4833356284444,
        "timestamp": "2025-12-20T09:36:01.916357+00:00",
        "meta_object_name": "FENGYUN 1C DEB",
        "meta_object_id": "1999-025AB",
        "meta_epoch": "2025-12-19T08:33:25.779168",
        "meta_mean_motion": 12.65669455,
        "meta_eccentricity": 0.0695297,
        "meta_inclination": 99.5803,
        "meta_ra_of_asc_node": 307.3309,
        "meta_arg_of_pericenter": 124.1153,
        "meta_mean_anomaly": 24.8955,
        "meta_ephemeris_type": 0,
        "meta_classification_type": "U",
        "meta_norad_cat_id": 29737,
        "meta_element_set_no": 999,
        "meta_rev_at_epoch": 86952,
        "meta_bstar": 0.002719,
        "meta_mean_motion_dot": 1.294e-05,
        "meta_mean_motion_ddot": 0,
        "tle_line1": "1 29737U 99025AB  25353.35654837  .00001294  00000+0  27190-2 0  9998",
        "tle_line2": "2 29737  99.5803 307.3309 0695297 124.1153  24.8955 12.65669455869526"
      },
      "geometry": {
        "type": "Point",
        "coordinates": [
          117.33718197414235,
          -48.142588885990165
        ]
      }
    },
    {
      "type": "Feature",
      "properties": {
        "norad_id": 29738,
        "name": "FENGYUN 1C DEB",
        "group": "fengyun-1c-debris",
        "lat": 60.67769075760846,
        "lon": -2.8959257793057724,
        "alt_km": 2039.0984233057688,
        "timestamp": "2025-12-20T09:36:01.916367+00:00",
        "meta_object_name": "FENGYUN 1C DEB",
        "meta_object_id": "1999-025AC",
        "meta_epoch": "2025-12-19T10:03:32.251392",
        "meta_mean_motion": 12.61062397,
        "meta_eccentricity": 0.0864961,
        "meta_inclination": 99.4087,
        "meta_ra_of_asc_node": 159.1339,
        "meta_arg_of_pericenter": 280.0234,
        "meta_mean_anomaly": 70.4435,
        "meta_ephemeris_type": 0,
        "meta_classification_type": "U",
        "meta_norad_cat_id": 29738,
        "meta_element_set_no": 999,
        "meta_rev_at_epoch": 86301,
        "meta_bstar": 0.0022174,
        "meta_mean_motion_dot": 1.655e-05,
        "meta_mean_motion_ddot": 0,
        "tle_line1": "1 29738U 99025AC  25353.41912328  .00001655  00000+0  22174-2 0  9996",
        "tle_line2": "2 29738  99.4087 159.1339 0864961 280.0234  70.4435 12.61062397863010"
      },
      "geometry": {
        "type": "Point",
        "coordinates": [
          -2.8959257793057724,
          60.67769075760846
        ]
      }
    }
  ]
}